[{"OBJECT_NAME":"STARLINK-33726","OBJECT_ID":"2025-069E","EPOCH":"2025-10-12T05:33:26.557632","MEAN_MOTION":15.30205319,"ECCENTRICITY":8.457e-5,"INCLINATION":53.1588,"RA_OF_ASC_NODE":112.16,"ARG_OF_PERICENTER":79.3866,"MEAN_ANOMALY":280.723,"EPHEMERIS_TYPE":0,"CLASSIFICATION_TYPE":"U","NORAD_CAT_ID":63437,"ELEMENT_SET_NO":999,"REV_AT_EPOCH":3062,"BSTAR":0.001397911,"MEAN_MOTION_DOT":0.0004128,"MEAN_MOTION_DDOT":0},{"OBJECT_NAME":"STARLINK-33681","OBJECT_ID":"2025-069F","EPOCH":"2025-10-12T05:22:48.427104","MEAN_MOTION":15.30224061,"ECCENTRICITY":0.0001321,"INCLINATION":53.1582,"RA_OF_ASC_NODE":112.1108,"ARG_OF_PERICENTER":79.9763,"MEAN_ANOMALY":280.1387,"EPHEMERIS_TYPE":0,"CLASSIFICATION_TYPE":"U","NORAD_CAT_ID":63438,"ELEMENT_SET_NO":999,"REV_AT_EPOCH":3067,"BSTAR":0.0013994519,"MEAN_MOTION_DOT":0.0004135,"MEAN_MOTION_DDOT":0},{"OBJECT_NAME":"STARLINK-33730","OBJECT_ID":"2025-069G","EPOCH":"2025-10-12T00:02:38.226912","MEAN_MOTION":15.30256813,"ECCENTRICITY":9.747e-5,"INCLINATION":53.1582,"RA_OF_ASC_NODE":112.8577,"ARG_OF_PERICENTER":258.8839,"MEAN_ANOMALY":101.2052,"EPHEMERIS_TYPE":0,"CLASSIFICATION_TYPE":"U","NORAD_CAT_ID":63439,"ELEMENT_SET_NO":999,"REV_AT_EPOCH":3064,"BSTAR":0.001209609,"MEAN_MOTION_DOT":0.00035701,"MEAN_MOTION_DDOT":0},{"OBJECT_NAME":"STARLINK-33743","OBJECT_ID":"2025-069H","EPOCH":"2025-10-12T05:36:28.978272","MEAN_MOTION":15.30213778,"ECCENTRICITY":0.00011786,"INCLINATION":53.1582,"RA_OF_ASC_NODE":112.1717,"ARG_OF_PERICENTER":84.8944,"MEAN_ANOMALY":275.2191,"EPHEMERIS_TYPE":0,"CLASSIFICATION_TYPE":"U","NORAD_CAT_ID":63440,"ELEMENT_SET_NO":999,"REV_AT_EPOCH":3056,"BSTAR":0.0011780865,"MEAN_MOTION_DOT":0.0003471,"MEAN_MOTION_DDOT":0},{"OBJECT_NAME":"STARLINK-33715","OBJECT_ID":"2025-069J","EPOCH":"2025-10-12T05:31:55.177536","MEAN_MOTION":15.30210392,"ECCENTRICITY":0.00014569,"INCLINATION":53.1584,"RA_OF_ASC_NODE":112.1432,"ARG_OF_PERICENTER":86.5171,"MEAN_ANOMALY":273.5997,"EPHEMERIS_TYPE":0,"CLASSIFICATION_TYPE":"U","NORAD_CAT_ID":63441,"ELEMENT_SET_NO":999,"REV_AT_EPOCH":3067,"BSTAR":0.00074235416,"MEAN_MOTION_DOT":0.00021699,"MEAN_MOTION_DDOT":0},{"OBJECT_NAME":"STARLINK-33762","OBJECT_ID":"2025-069K","EPOCH":"2025-10-12T00:46:43.451904","MEAN_MOTION":15.30241344,"ECCENTRICITY":0.00019891,"INCLINATION":53.1562,"RA_OF_ASC_NODE":113.0445,"ARG_OF_PERICENTER":115.9045,"MEAN_ANOMALY":244.2161,"EPHEMERIS_TYPE":0,"CLASSIFICATION_TYPE":"U","NORAD_CAT_ID":63442,"ELEMENT_SET_NO":999,"REV_AT_EPOCH":3064,"BSTAR":0.0014140083,"MEAN_MOTION_DOT":0.0004181,"MEAN_MOTION_DDOT":0},{"OBJECT_NAME":"STARLINK-33753","OBJECT_ID":"2025-069L","EPOCH":"2025-10-12T05:13:41.302560","MEAN_MOTION":15.30219948,"ECCENTRICITY":0.00013615,"INCLINATION":53.1566,"RA_OF_ASC_NODE":112.0709,"ARG_OF_PERICENTER":89.5104,"MEAN_ANOMALY":270.6053,"EPHEMERIS_TYPE":0,"CLASSIFICATION_TYPE":"U","NORAD_CAT_ID":63443,"ELEMENT_SET_NO":999,"REV_AT_EPOCH":3066,"BSTAR":0.0010258578,"MEAN_MOTION_DOT":0.00030166,"MEAN_MOTION_DDOT":0},{"OBJECT_NAME":"STARLINK-33747","OBJECT_ID":"2025-069M","EPOCH":"2025-10-12T00:22:24.581856","MEAN_MOTION":15.30218938,"ECCENTRICITY":7.079e-5,"INCLINATION":53.157,"RA_OF_ASC_NODE":112.9405,"ARG_OF_PERICENTER":69.3529,"MEAN_ANOMALY":290.7548,"EPHEMERIS_TYPE":0,"CLASSIFICATION_TYPE":"U","NORAD_CAT_ID":63444,"ELEMENT_SET_NO":999,"REV_AT_EPOCH":3059,"BSTAR":0.0014247024,"MEAN_MOTION_DOT":0.000421,"MEAN_MOTION_DDOT":0},{"OBJECT_NAME":"STARLINK-33659","OBJECT_ID":"2025-069N","EPOCH":"2025-10-12T05:59:16.603008","MEAN_MOTION":15.30217109,"ECCENTRICITY":0.00017612,"INCLINATION":53.1594,"RA_OF_ASC_NODE":112.2699,"ARG_OF_PERICENTER":86.4864,"MEAN_ANOMALY":273.6338,"EPHEMERIS_TYPE":0,"CLASSIFICATION_TYPE":"U","NORAD_CAT_ID":63445,"ELEMENT_SET_NO":999,"REV_AT_EPOCH":3062,"BSTAR":0.0012125963,"MEAN_MOTION_DOT":0.00035747,"MEAN_MOTION_DDOT":0},{"OBJECT_NAME":"STARLINK-33746","OBJECT_ID":"2025-069P","EPOCH":"2025-10-12T05:21:17.350272","MEAN_MOTION":15.30215043,"ECCENTRICITY":0.00015776,"INCLINATION":53.157,"RA_OF_ASC_NODE":112.1016,"ARG_OF_PERICENTER":93.0286,"MEAN_ANOMALY":267.0895,"EPHEMERIS_TYPE":0,"CLASSIFICATION_TYPE":"U","NORAD_CAT_ID":63446,"ELEMENT_SET_NO":999,"REV_AT_EPOCH":3062,"BSTAR":0.0015667963,"MEAN_MOTION_DOT":0.00046357,"MEAN_MOTION_DDOT":0},{"OBJECT_NAME":"STARLINK-33799","OBJECT_ID":"2025-069Q","EPOCH":"2025-10-12T05:56:14.331840","MEAN_MOTION":15.30208866,"ECCENTRICITY":0.00016187,"INCLINATION":53.1601,"RA_OF_ASC_NODE":112.2543,"ARG_OF_PERICENTER":84.9643,"MEAN_ANOMALY":275.1543,"EPHEMERIS_TYPE":0,"CLASSIFICATION_TYPE":"U","NORAD_CAT_ID":63447,"ELEMENT_SET_NO":999,"REV_AT_EPOCH":3056,"BSTAR":0.0012226813,"MEAN_MOTION_DOT":0.00036039,"MEAN_MOTION_DDOT":0},{"OBJECT_NAME":"STARLINK-33797","OBJECT_ID":"2025-069R","EPOCH":"2025-10-12T00:13:17.082336","MEAN_MOTION":15.30230785,"ECCENTRICITY":6.518e-5,"INCLINATION":53.1584,"RA_OF_ASC_NODE":112.9009,"ARG_OF_PERICENTER":293.0338,"MEAN_ANOMALY":67.0594,"EPHEMERIS_TYPE":0,"CLASSIFICATION_TYPE":"U","NORAD_CAT_ID":63448,"ELEMENT_SET_NO":999,"REV_AT_EPOCH":3059,"BSTAR":0.0011685873,"MEAN_MOTION_DOT":0.00034445,"MEAN_MOTION_DDOT":0},{"OBJECT_NAME":"STARLINK-33798","OBJECT_ID":"2025-069S","EPOCH":"2025-10-12T06:00:47.592576","MEAN_MOTION":15.30215767,"ECCENTRICITY":0.00017219,"INCLINATION":53.1593,"RA_OF_ASC_NODE":112.2568,"ARG_OF_PERICENTER":83.5673,"MEAN_ANOMALY":276.5524,"EPHEMERIS_TYPE":0,"CLASSIFICATION_TYPE":"U","NORAD_CAT_ID":63449,"ELEMENT_SET_NO":999,"REV_AT_EPOCH":3040,"BSTAR":0.0011737235,"MEAN_MOTION_DOT":0.00034582,"MEAN_MOTION_DDOT":0},{"OBJECT_NAME":"STARLINK-33736","OBJECT_ID":"2025-069T","EPOCH":"2025-10-12T00:04:09.976800","MEAN_MOTION":15.30247567,"ECCENTRICITY":1.036e-5,"INCLINATION":53.1579,"RA_OF_ASC_NODE":112.8598,"ARG_OF_PERICENTER":42.4392,"MEAN_ANOMALY":317.6617,"EPHEMERIS_TYPE":0,"CLASSIFICATION_TYPE":"U","NORAD_CAT_ID":63450,"ELEMENT_SET_NO":999,"REV_AT_EPOCH":3059,"BSTAR":0.0016679114,"MEAN_MOTION_DOT":0.00049442,"MEAN_MOTION_DDOT":0},{"OBJECT_NAME":"STARLINK-33740","OBJECT_ID":"2025-069U","EPOCH":"2025-10-12T05:16:43.733568","MEAN_MOTION":15.30212681,"ECCENTRICITY":0.00014543,"INCLINATION":53.1569,"RA_OF_ASC_NODE":112.0791,"ARG_OF_PERICENTER":80.2557,"MEAN_ANOMALY":279.8608,"EPHEMERIS_TYPE":0,"CLASSIFICATION_TYPE":"U","NORAD_CAT_ID":63451,"ELEMENT_SET_NO":999,"REV_AT_EPOCH":3056,"BSTAR":0.00157751,"MEAN_MOTION_DOT":0.00046675,"MEAN_MOTION_DDOT":0},{"OBJECT_NAME":"STARLINK-33763","OBJECT_ID":"2025-069V","EPOCH":"2025-10-12T00:11:46.192992","MEAN_MOTION":15.30207821,"ECCENTRICITY":9.275e-5,"INCLINATION":53.1576,"RA_OF_ASC_NODE":112.8755,"ARG_OF_PERICENTER":77.9101,"MEAN_ANOMALY":282.2003,"EPHEMERIS_TYPE":0,"CLASSIFICATION_TYPE":"U","NORAD_CAT_ID":63452,"ELEMENT_SET_NO":999,"REV_AT_EPOCH":3064,"BSTAR":0.0010935735,"MEAN_MOTION_DOT":0.00032177,"MEAN_MOTION_DDOT":0},{"OBJECT_NAME":"STARLINK-33784","OBJECT_ID":"2025-069W","EPOCH":"2025-10-11T23:38:29.982336","MEAN_MOTION":15.30216962,"ECCENTRICITY":8.049e-5,"INCLINATION":53.1581,"RA_OF_ASC_NODE":113.4553,"ARG_OF_PERICENTER":83.7875,"MEAN_ANOMALY":276.3218,"EPHEMERIS_TYPE":0,"CLASSIFICATION_TYPE":"U","NORAD_CAT_ID":63453,"ELEMENT_SET_NO":999,"REV_AT_EPOCH":3063,"BSTAR":0.0010910487,"MEAN_MOTION_DOT":0.00032111,"MEAN_MOTION_DDOT":0},{"OBJECT_NAME":"STARLINK-33768","OBJECT_ID":"2025-069X","EPOCH":"2025-10-12T05:12:09.789408","MEAN_MOTION":15.30221311,"ECCENTRICITY":0.00014241,"INCLINATION":53.1568,"RA_OF_ASC_NODE":112.0432,"ARG_OF_PERICENTER":89.6573,"MEAN_ANOMALY":270.4591,"EPHEMERIS_TYPE":0,"CLASSIFICATION_TYPE":"U","NORAD_CAT_ID":63454,"ELEMENT_SET_NO":999,"REV_AT_EPOCH":3067,"BSTAR":0.0012846705,"MEAN_MOTION_DOT":0.00037909,"MEAN_MOTION_DDOT":0},{"OBJECT_NAME":"STARLINK-33761","OBJECT_ID":"2025-069Y","EPOCH":"2025-10-12T00:16:19.517664","MEAN_MOTION":15.30205128,"ECCENTRICITY":9.559e-5,"INCLINATION":53.1566,"RA_OF_ASC_NODE":112.8974,"ARG_OF_PERICENTER":90.4377,"MEAN_ANOMALY":269.6733,"EPHEMERIS_TYPE":0,"CLASSIFICATION_TYPE":"U","NORAD_CAT_ID":63455,"ELEMENT_SET_NO":999,"REV_AT_EPOCH":3064,"BSTAR":0.0013214949,"MEAN_MOTION_DOT":0.00038991,"MEAN_MOTION_DDOT":0},{"OBJECT_NAME":"STARLINK-33737","OBJECT_ID":"2025-069Z","EPOCH":"2025-10-12T00:25:26.515200","MEAN_MOTION":15.30211468,"ECCENTRICITY":8.868e-5,"INCLINATION":53.1565,"RA_OF_ASC_NODE":112.9278,"ARG_OF_PERICENTER":88.1041,"MEAN_ANOMALY":272.0061,"EPHEMERIS_TYPE":0,"CLASSIFICATION_TYPE":"U","NORAD_CAT_ID":63456,"ELEMENT_SET_NO":999,"REV_AT_EPOCH":3053,"BSTAR":0.001078517,"MEAN_MOTION_DOT":0.00031731,"MEAN_MOTION_DDOT":0},{"OBJECT_NAME":"STARLINK-33795","OBJECT_ID":"2025-069AA","EPOCH":"2025-10-12T05:47:06.579168","MEAN_MOTION":15.30222576,"ECCENTRICITY":7.481e-5,"INCLINATION":53.1594,"RA_OF_ASC_NODE":112.2013,"ARG_OF_PERICENTER":102.8695,"MEAN_ANOMALY":257.2389,"EPHEMERIS_TYPE":0,"CLASSIFICATION_TYPE":"U","NORAD_CAT_ID":63457,"ELEMENT_SET_NO":999,"REV_AT_EPOCH":3056,"BSTAR":0.00076682202,"MEAN_MOTION_DOT":0.00022436,"MEAN_MOTION_DDOT":0},{"OBJECT_NAME":"STARLINK-33756","OBJECT_ID":"2025-069AB","EPOCH":"2025-10-12T05:51:40.303872","MEAN_MOTION":15.30212112,"ECCENTRICITY":0.00013357,"INCLINATION":53.1596,"RA_OF_ASC_NODE":112.2114,"ARG_OF_PERICENTER":91.679,"MEAN_ANOMALY":268.4364,"EPHEMERIS_TYPE":0,"CLASSIFICATION_TYPE":"U","NORAD_CAT_ID":63458,"ELEMENT_SET_NO":999,"REV_AT_EPOCH":3067,"BSTAR":0.00072871718,"MEAN_MOTION_DOT":0.00021293,"MEAN_MOTION_DDOT":0},{"OBJECT_NAME":"STARLINK-33780","OBJECT_ID":"2025-069AC","EPOCH":"2025-10-12T00:20:52.893312","MEAN_MOTION":15.30213615,"ECCENTRICITY":8.207e-5,"INCLINATION":53.1568,"RA_OF_ASC_NODE":112.9107,"ARG_OF_PERICENTER":103.5275,"MEAN_ANOMALY":256.5818,"EPHEMERIS_TYPE":0,"CLASSIFICATION_TYPE":"U","NORAD_CAT_ID":63459,"ELEMENT_SET_NO":999,"REV_AT_EPOCH":3053,"BSTAR":0.0008789969,"MEAN_MOTION_DOT":0.00025776,"MEAN_MOTION_DDOT":0}]
